[{"OBJECT_NAME":"NUSAT-41 (C PAYNE-G)","OBJECT_ID":"2023-084N","EPOCH":"2026-03-09T21:55:54.837696","MEAN_MOTION":15.29680045,"ECCENTRICITY":0.00062175,"INCLINATION":97.5351,"RA_OF_ASC_NODE":204.1011,"ARG_OF_PERICENTER":322.2064,"MEAN_ANOMALY":37.8738,"EPHEMERIS_TYPE":0,"CLASSIFICATION_TYPE":"U","NORAD_CAT_ID":56944,"ELEMENT_SET_NO":999,"REV_AT_EPOCH":15260,"BSTAR":0.00059912824,"MEAN_MOTION_DOT":0.0001718,"MEAN_MOTION_DDOT":0},{"OBJECT_NAME":"STARLINK-35259","OBJECT_ID":"2025-243W","EPOCH":"2026-03-09T17:19:29.595648","MEAN_MOTION":15.3019596,"ECCENTRICITY":8.829e-5,"INCLINATION":53.1567,"RA_OF_ASC_NODE":245.4605,"ARG_OF_PERICENTER":71.9522,"MEAN_ANOMALY":288.1575,"EPHEMERIS_TYPE":0,"CLASSIFICATION_TYPE":"U","NORAD_CAT_ID":66198,"ELEMENT_SET_NO":999,"REV_AT_EPOCH":2065,"BSTAR":0.0012245837,"MEAN_MOTION_DOT":0.00036081,"MEAN_MOTION_DDOT":0}]
